[{"OBJECT_NAME":"STARLINK-5728","OBJECT_ID":"2023-020V","EPOCH":"2026-03-09T22:00:01.999584","MEAN_MOTION":15.12999401,"ECCENTRICITY":0.00012068,"INCLINATION":43.0006,"RA_OF_ASC_NODE":2.7584,"ARG_OF_PERICENTER":279.492,"MEAN_ANOMALY":348.9005,"EPHEMERIS_TYPE":0,"CLASSIFICATION_TYPE":"U","NORAD_CAT_ID":55588,"ELEMENT_SET_NO":999,"REV_AT_EPOCH":573,"BSTAR":0.026730069,"MEAN_MOTION_DOT":0.00510293,"MEAN_MOTION_DDOT":0},{"OBJECT_NAME":"FLOCK 4H-32","OBJECT_ID":"2025-276BX","EPOCH":"2026-03-09T18:22:10.372512","MEAN_MOTION":15.18499661,"ECCENTRICITY":0.00045335,"INCLINATION":97.429,"RA_OF_ASC_NODE":144.0078,"ARG_OF_PERICENTER":12.8699,"MEAN_ANOMALY":347.265,"EPHEMERIS_TYPE":0,"CLASSIFICATION_TYPE":"U","NORAD_CAT_ID":66735,"ELEMENT_SET_NO":999,"REV_AT_EPOCH":1532,"BSTAR":0.00039604873,"MEAN_MOTION_DOT":8.106e-5,"MEAN_MOTION_DDOT":0}]
